{"type":"FeatureCollection","features":[{"type":"Feature","id":"toeibus-stop-003","geometry":{"type":"Point","coordinates":[139.701636,35.658034]},"properties":{"stop_id":"toeibus-stop-003","stop_name":"渋谷駅前","terminal_roles":["origin"],"routes":["都01","渋66"]}},{"type":"Feature","id":"toeibus-stop-005","geometry":{"type":"Point","coordinates":[139.75859,35.666195]},"properties":{"stop_id":"toeibus-stop-005","stop_name":"新橋駅前","terminal_roles":["destination","origin"],"routes":["都01","業10"]}},{"type":"Feature","id":"toeibus-stop-002","geometry":{"type":"Point","coordinates":[139.699347,35.690921]},"properties":{"stop_id":"toeibus-stop-002","stop_name":"新宿駅西口","terminal_roles":["origin"],"routes":["宿75","宿74"]}},{"type":"Feature","id":"toeibus-stop-004","geometry":{"type":"Point","coordinates":[139.731443,35.662836]},"properties":{"stop_id":"toeibus-stop-004","stop_name":"六本木駅前","terminal_roles":["origin"],"routes":["反96"]}},{"type":"Feature","id":"toeibus-stop-010","geometry":{"type":"Point","coordinates":[139.791593,35.630233]},"properties":{"stop_id":"toeibus-stop-010","stop_name":"東京ビッグサイト","terminal_roles":["destination"],"routes":["都05-2"]}},{"type":"Feature","id":"toeibus-stop-014","geometry":{"type":"Point","coordinates":[139.796357,35.671904]},"properties":{"stop_id":"toeibus-stop-014","stop_name":"門前仲町","terminal_roles":["origin","destination"],"routes":["海01","都07"]}},{"type":"Feature","id":"toeibus-stop-013","geometry":{"type":"Point","coordinates":[139.814833,35.696825]},"properties":{"stop_id":"toeibus-stop-013","stop_name":"錦糸町駅前","terminal_roles":["destination","origin"],"routes":["都02","錦13","都07","東22"]}}]}